{
    "links": {
        "self": "http://www.neowsapp.com/rest/v1/neo/3712535?api_key=iIulBulltgU6a56xZRHN4H3l9WmuAYTsLGpBGhQ2"
    },
    "id": "3712535",
    "neo_reference_id": "3712535",
    "name": "(2015 DB199)",
    "designation": "2015 DB199",
    "nasa_jpl_url": "http://ssd.jpl.nasa.gov/sbdb.cgi?sstr=3712535",
    "absolute_magnitude_h": 24.9,
    "estimated_diameter": {
        "kilometers": {
            "estimated_diameter_min": 0.0278326768,
            "estimated_diameter_max": 0.0622357573
        },
        "meters": {
            "estimated_diameter_min": 27.8326768072,
            "estimated_diameter_max": 62.2357573367
        },
        "miles": {
            "estimated_diameter_min": 0.0172944182,
            "estimated_diameter_max": 0.0386714948
        },
        "feet": {
            "estimated_diameter_min": 91.3145593761,
            "estimated_diameter_max": 204.1855621004
        }
    },
    "is_potentially_hazardous_asteroid": false,
    "close_approach_data": [
        {
            "close_approach_date": "2015-03-16",
            "close_approach_date_full": "2015-Mar-16 07:19",
            "epoch_date_close_approach": 1426490340000,
            "relative_velocity": {
                "kilometers_per_second": "5.2649390618",
                "kilometers_per_hour": "18953.7806223524",
                "miles_per_hour": "11777.1421872611"
            },
            "miss_distance": {
                "astronomical": "0.0961975739",
                "lunar": "37.4208562471",
                "kilometers": "14390952.154607593",
                "miles": "8942123.0171190634"
            },
            "orbiting_body": "Earth"
        }
    ],
    "orbital_data": {
        "orbit_id": "7",
        "orbit_determination_date": "2017-04-06 08:35:22",
        "first_observation_date": "2015-02-21",
        "last_observation_date": "2015-03-13",
        "data_arc_in_days": 20,
        "observations_used": 18,
        "orbit_uncertainty": "8",
        "minimum_orbit_intersection": ".0953985",
        "jupiter_tisserand_invariant": "3.424",
        "epoch_osculation": "2457080.5",
        "eccentricity": ".5192231518908771",
        "semi_major_axis": "2.2657496335351",
        "inclination": ".7687036303244908",
        "ascending_node_longitude": "57.29311076461173",
        "orbital_period": "1245.708146239482",
        "perihelion_distance": "1.089319967415406",
        "perihelion_argument": "117.345884128966",
        "aphelion_distance": "3.442179299654795",
        "perihelion_time": "2457096.725819556817",
        "mean_anomaly": "355.3108638985081",
        "mean_motion": ".2889922499798694",
        "equinox": "J2000",
        "orbit_class": {
            "orbit_class_type": "AMO",
            "orbit_class_description": "Near-Earth asteroid orbits similar to that of 1221 Amor",
            "orbit_class_range": "1.017 AU < q (perihelion) < 1.3 AU"
        }
    },
    "is_sentry_object": false
}